*******************************************************************************
Ephemeris / WWW_USER Mon Mar 24 09:12:26 2025 Pasadena, USA      / Horizons    
*******************************************************************************
Target body name: (2013 AZ60)                     {source: JPL#49}
Center body name: Earth (399)                     {source: DE441}
Center-site name: Mauna Kea
*******************************************************************************
Start time      : A.D. 2019-Jan-22 04:17:00.0000 UT      
Stop  time      : A.D. 2019-Jan-22 16:49:00.0000 UT      
Step-size       : 1 minutes
*******************************************************************************
Target pole/equ : undefined
Target radii    : undefined                                                    
Center geodetic : 204.5278, 19.8260847, 4.21024   {E-lon(deg),Lat(deg),Alt(km)}
Center cylindric: 204.5278, 6006.35451, 2151.0229 {E-lon(deg),Dxy(km),Dz(km)}
Center pole/equ : ITRF93                          {East-longitude positive}
Center radii    : 6378.137, 6378.137, 6356.752 km {Equator_a, b, pole_c}       
Target primary  : Sun
Vis. interferer : MOON (R_eq= 1737.400) km        {source: DE441}
Rel. light bend : Sun                             {source: DE441}
Rel. lght bnd GM: 1.3271E+11 km^3/s^2                                          
Small-body perts: Yes                             {source: SB441-N16}
Atmos refraction: NO (AIRLESS)
RA format       : HMS
Time format     : CAL 
Calendar mode   : Mixed Julian/Gregorian
RTS-only print  : NO       
EOP file        : eop.250321.p250617                                           
EOP coverage    : DATA-BASED 1962-JAN-20 TO 2025-MAR-21. PREDICTS-> 2025-JUN-16
Units conversion: 1 au= 149597870.700 km, c= 299792.458 km/s, 1 day= 86400.0 s 
Table cut-offs 1: Elevation (-90.0deg=NO ),Airmass (>38.000=NO), Daylight (YES)
Table cut-offs 2: Solar elongation (  0.0,180.0=NO ),Local Hour Angle( 0.0=NO )
Table cut-offs 3: RA/DEC angular rate (     0.0=NO )                           
*******************************************************************************
Initial IAU76/J2000 heliocentric ecliptic osculating elements (au, days, deg.):
  EPOCH=  2457400.5 ! 2016-Jan-13.00 (TDB)         Residual RMS= .1326         
   EC= .9891456016948332   QR= 7.910280980491398   TP= 2456989.3208761909      
   OM= 349.2102750469422   W=  158.2320149266156   IN= 16.53862471305098       
  Equivalent ICRF heliocentric cartesian coordinates (au, au/d):
   X=-8.215502218447208E+00  Y= 1.083611838195559E+00  Z= 3.298265209415168E-01
  VX=-2.822922434188891E-03 VY=-6.008885131743716E-03 VZ=-5.184670886061429E-03
Asteroid physical parameters (km, seconds, rotational period in hours):        
   GM= n.a.                RAD= n.a.               ROTPER= 9.39                
   H= 10.3                 G= .150                 B-V= n.a.                   
                           ALBEDO= n.a.            STYP= n.a.                  
*******************************************************************************
 Date__(UT)__HR:MN     R.A._________(ICRF)_________DEC
******************************************************
$$SOE
 2019-Jan-22 08:23  m  14 20 37.347126 -26 59 54.18552
 2019-Jan-22 08:24  m  14 20 37.353009 -26 59 54.27301
 2019-Jan-22 08:25  m  14 20 37.358890 -26 59 54.36050
 2019-Jan-22 08:26  m  14 20 37.364771 -26 59 54.44800
 2019-Jan-22 08:27  m  14 20 37.370651 -26 59 54.53549
 2019-Jan-22 08:28  m  14 20 37.376529 -26 59 54.62299
 2019-Jan-22 08:29  m  14 20 37.382407 -26 59 54.71049
 2019-Jan-22 08:30  m  14 20 37.388284 -26 59 54.79799
 2019-Jan-22 08:31  m  14 20 37.394159 -26 59 54.88550
 2019-Jan-22 08:32  m  14 20 37.400034 -26 59 54.97301
 2019-Jan-22 08:33  m  14 20 37.405908 -26 59 55.06052
 2019-Jan-22 08:34  m  14 20 37.411780 -26 59 55.14803
 2019-Jan-22 08:35  m  14 20 37.417652 -26 59 55.23555
 2019-Jan-22 08:36  m  14 20 37.423522 -26 59 55.32307
 2019-Jan-22 08:37  m  14 20 37.429392 -26 59 55.41059
 2019-Jan-22 08:38  m  14 20 37.435261 -26 59 55.49811
 2019-Jan-22 08:39  m  14 20 37.441128 -26 59 55.58564
 2019-Jan-22 08:40  m  14 20 37.446995 -26 59 55.67317
 2019-Jan-22 08:41  m  14 20 37.452860 -26 59 55.76070
 2019-Jan-22 08:42  m  14 20 37.458725 -26 59 55.84823
 2019-Jan-22 08:43  m  14 20 37.464588 -26 59 55.93577
 2019-Jan-22 08:44  m  14 20 37.470450 -26 59 56.02330
 2019-Jan-22 08:45  m  14 20 37.476312 -26 59 56.11084
 2019-Jan-22 08:46  m  14 20 37.482172 -26 59 56.19838
 2019-Jan-22 08:47  m  14 20 37.488031 -26 59 56.28593
 2019-Jan-22 08:48  m  14 20 37.493889 -26 59 56.37348
 2019-Jan-22 08:49  m  14 20 37.499747 -26 59 56.46102
 2019-Jan-22 08:50  m  14 20 37.505603 -26 59 56.54857
 2019-Jan-22 08:51  m  14 20 37.511458 -26 59 56.63613
 2019-Jan-22 08:52  m  14 20 37.517312 -26 59 56.72368
 2019-Jan-22 08:53  m  14 20 37.523165 -26 59 56.81124
 2019-Jan-22 08:54  m  14 20 37.529017 -26 59 56.89880
 2019-Jan-22 08:55  m  14 20 37.534868 -26 59 56.98636
 2019-Jan-22 08:56  m  14 20 37.540717 -26 59 57.07392
 2019-Jan-22 08:57  m  14 20 37.546566 -26 59 57.16148
 2019-Jan-22 08:58  m  14 20 37.552414 -26 59 57.24905
 2019-Jan-22 08:59  m  14 20 37.558260 -26 59 57.33662
 2019-Jan-22 09:00  m  14 20 37.564106 -26 59 57.42419
 2019-Jan-22 09:01  m  14 20 37.569950 -26 59 57.51176
 2019-Jan-22 09:02  m  14 20 37.575794 -26 59 57.59934
 2019-Jan-22 09:03  m  14 20 37.581636 -26 59 57.68691
 2019-Jan-22 09:04  m  14 20 37.587477 -26 59 57.77449
 2019-Jan-22 09:05  m  14 20 37.593317 -26 59 57.86207
 2019-Jan-22 09:06  m  14 20 37.599157 -26 59 57.94965
 2019-Jan-22 09:07  m  14 20 37.604995 -26 59 58.03723
 2019-Jan-22 09:08  m  14 20 37.610831 -26 59 58.12482
 2019-Jan-22 09:09  m  14 20 37.616667 -26 59 58.21240
 2019-Jan-22 09:10  m  14 20 37.622502 -26 59 58.29999
 2019-Jan-22 09:11  m  14 20 37.628336 -26 59 58.38758
 2019-Jan-22 09:12  m  14 20 37.634168 -26 59 58.47517
 2019-Jan-22 09:13  m  14 20 37.640000 -26 59 58.56276
 2019-Jan-22 09:14  m  14 20 37.645830 -26 59 58.65036
 2019-Jan-22 09:15  m  14 20 37.651660 -26 59 58.73795
 2019-Jan-22 09:16  m  14 20 37.657488 -26 59 58.82555
 2019-Jan-22 09:17  m  14 20 37.663315 -26 59 58.91315
 2019-Jan-22 09:18  m  14 20 37.669141 -26 59 59.00075
 2019-Jan-22 09:19  m  14 20 37.674966 -26 59 59.08835
 2019-Jan-22 09:20  m  14 20 37.680790 -26 59 59.17595
 2019-Jan-22 09:21  m  14 20 37.686613 -26 59 59.26356
 2019-Jan-22 09:22  m  14 20 37.692434 -26 59 59.35116
 2019-Jan-22 09:23  m  14 20 37.698255 -26 59 59.43877
 2019-Jan-22 09:24  m  14 20 37.704074 -26 59 59.52638
 2019-Jan-22 09:25  m  14 20 37.709893 -26 59 59.61399
 2019-Jan-22 09:26  m  14 20 37.715710 -26 59 59.70160
 2019-Jan-22 09:27  m  14 20 37.721526 -26 59 59.78921
 2019-Jan-22 09:28  m  14 20 37.727341 -26 59 59.87682
 2019-Jan-22 09:29  m  14 20 37.733155 -26 59 59.96444
 2019-Jan-22 09:30  m  14 20 37.738967 -27 00 00.05205
 2019-Jan-22 09:31  m  14 20 37.744779 -27 00 00.13967
 2019-Jan-22 09:32  m  14 20 37.750590 -27 00 00.22729
 2019-Jan-22 09:33  m  14 20 37.756399 -27 00 00.31491
 2019-Jan-22 09:34  m  14 20 37.762207 -27 00 00.40253
 2019-Jan-22 09:35  m  14 20 37.768015 -27 00 00.49015
 2019-Jan-22 09:36  m  14 20 37.773821 -27 00 00.57777
 2019-Jan-22 09:37  m  14 20 37.779626 -27 00 00.66539
 2019-Jan-22 09:38  m  14 20 37.785429 -27 00 00.75302
 2019-Jan-22 09:39  m  14 20 37.791232 -27 00 00.84064
 2019-Jan-22 09:40  m  14 20 37.797034 -27 00 00.92827
 2019-Jan-22 09:41  m  14 20 37.802834 -27 00 01.01589
 2019-Jan-22 09:42  m  14 20 37.808633 -27 00 01.10352
 2019-Jan-22 09:43  m  14 20 37.814432 -27 00 01.19115
 2019-Jan-22 09:44  m  14 20 37.820229 -27 00 01.27878
 2019-Jan-22 09:45  m  14 20 37.826025 -27 00 01.36641
 2019-Jan-22 09:46  m  14 20 37.831819 -27 00 01.45404
 2019-Jan-22 09:47  m  14 20 37.837613 -27 00 01.54167
 2019-Jan-22 09:48  m  14 20 37.843406 -27 00 01.62930
 2019-Jan-22 09:49  m  14 20 37.849197 -27 00 01.71693
 2019-Jan-22 09:50  m  14 20 37.854987 -27 00 01.80456
 2019-Jan-22 09:51  m  14 20 37.860776 -27 00 01.89220
 2019-Jan-22 09:52  m  14 20 37.866564 -27 00 01.97983
 2019-Jan-22 09:53  m  14 20 37.872351 -27 00 02.06747
 2019-Jan-22 09:54  m  14 20 37.878137 -27 00 02.15510
 2019-Jan-22 09:55  m  14 20 37.883921 -27 00 02.24274
 2019-Jan-22 09:56  m  14 20 37.889705 -27 00 02.33037
 2019-Jan-22 09:57  m  14 20 37.895487 -27 00 02.41801
 2019-Jan-22 09:58  m  14 20 37.901268 -27 00 02.50565
 2019-Jan-22 09:59  m  14 20 37.907048 -27 00 02.59328
 2019-Jan-22 10:00  m  14 20 37.912827 -27 00 02.68092
 2019-Jan-22 10:01  m  14 20 37.918605 -27 00 02.76856
 2019-Jan-22 10:02  m  14 20 37.924381 -27 00 02.85620
 2019-Jan-22 10:03  m  14 20 37.930157 -27 00 02.94384
 2019-Jan-22 10:04  m  14 20 37.935931 -27 00 03.03148
 2019-Jan-22 10:05  m  14 20 37.941704 -27 00 03.11912
 2019-Jan-22 10:06  m  14 20 37.947476 -27 00 03.20676
 2019-Jan-22 10:07  m  14 20 37.953247 -27 00 03.29440
 2019-Jan-22 10:08  m  14 20 37.959017 -27 00 03.38204
 2019-Jan-22 10:09  m  14 20 37.964785 -27 00 03.46968
 2019-Jan-22 10:10  m  14 20 37.970553 -27 00 03.55732
 2019-Jan-22 10:11  m  14 20 37.976319 -27 00 03.64496
 2019-Jan-22 10:12  m  14 20 37.982084 -27 00 03.73260
 2019-Jan-22 10:13  m  14 20 37.987848 -27 00 03.82024
 2019-Jan-22 10:14  m  14 20 37.993611 -27 00 03.90788
 2019-Jan-22 10:15  m  14 20 37.999372 -27 00 03.99552
 2019-Jan-22 10:16  m  14 20 38.005133 -27 00 04.08316
 2019-Jan-22 10:17  m  14 20 38.010892 -27 00 04.17080
 2019-Jan-22 10:18  m  14 20 38.016650 -27 00 04.25844
 2019-Jan-22 10:19  m  14 20 38.022407 -27 00 04.34608
 2019-Jan-22 10:20  m  14 20 38.028163 -27 00 04.43372
 2019-Jan-22 10:21  m  14 20 38.033918 -27 00 04.52136
 2019-Jan-22 10:22  m  14 20 38.039671 -27 00 04.60900
 2019-Jan-22 10:23  m  14 20 38.045424 -27 00 04.69664
 2019-Jan-22 10:24  m  14 20 38.051175 -27 00 04.78428
 2019-Jan-22 10:25  m  14 20 38.056925 -27 00 04.87192
